NORAD_CAT_ID,OBJECT_NAME,OBJECT_TYPE,EPOCH,MEAN_MOTION,ECCENTRICITY,INCLINATION,RA_OF_ASC_NODE,ARG_OF_PERICENTER,MEAN_ANOMALY,BSTAR,MEAN_MOTION_DOT,MEAN_MOTION_DDOT,TLE_LINE0,TLE_LINE1,TLE_LINE2,SEMIMAJOR_AXIS,PERIOD,APOGEE,PERIGEE,DECAYED
55423.0,STARLINK-5068,PAYLOAD,2023-04-06 20:46:24,15.69936778,0.0003497,70.0005,266.445,271.0607,89.0188,5.8541e-05,6.836e-05,0.0,0 STARLINK-5068,1 55423U 23014AJ  23096.86556551  .00006836  00000-0  58541-4 0  9990,2 55423  70.0005 266.4450 0003497 271.0607  89.0188 15.69936778 11373,6737.215,91.723,361.436,356.724,0.0
55423.0,STARLINK-5068,PAYLOAD,2023-04-07 04:25:10,15.6993118,0.0005092,70.0023,265.5497,267.7675,92.2938,3.951e-05,4.543e-05,0.0,0 STARLINK-5068,1 55423U 23014AJ  23097.18414575  .00004543  00000-0  39510-4 0  9993,2 55423  70.0023 265.5497 0005092 267.7675  92.2938 15.69931180 10486,6737.231,91.724,362.526,355.665,0.0
55423.0,STARLINK-5068,PAYLOAD,2023-04-07 13:35:41,15.6993042,0.0003756,70.0006,264.4732,271.4389,88.6377,4.2396e-05,4.889e-05,0.0,0 STARLINK-5068,1 55423U 23014AJ  23097.56645045  .00004889  00000-0  42396-4 0  9992,2 55423  70.0006 264.4732 0003756 271.4389  88.6377 15.69930420 11489,6737.233,91.724,361.629,356.568,0.0
55423.0,STARLINK-5068,PAYLOAD,2023-04-08 00:17:58,15.69872277,0.0003613,70.0014,263.2203,274.0334,86.0449,-0.00018445,-0.00022286,0.0,0 STARLINK-5068,1 55423U 23014AJ  23098.01248345 -.00022286  00000-0 -18445-3 0  9995,2 55423  70.0014 263.2203 0003613 274.0334  86.0449 15.69872277 10610,6737.399,91.727,361.699,356.83,0.0
55423.0,STARLINK-5068,PAYLOAD,2023-04-08 12:31:59,15.69927827,0.0003084,69.9999,261.7866,272.1085,87.9758,0.00022041,0.00026376,0.0,0 STARLINK-5068,1 55423U 23014AJ  23098.52222178  .00026376  00000-0  22041-3 0  9996,2 55423  69.9999 261.7866 0003084 272.1085  87.9758 15.69927827 10694,6737.24,91.724,361.183,357.028,0.0
55423.0,STARLINK-5068,PAYLOAD,2023-04-09 03:49:30,15.69946596,0.0002537,70.0023,259.9946,275.52,84.5706,0.00014753,0.00017578,0.0,0 STARLINK-5068,1 55423U 23014AJ  23099.15937815  .00017578  00000-0  14753-3 0  9992,2 55423  70.0023 259.9946 0002537 275.5200  84.5706 15.69946596 10792,6737.187,91.723,360.761,357.343,0.0
55423.0,STARLINK-5068,PAYLOAD,2023-04-09 11:28:15,15.69952686,0.0001063,70.001,259.1,285.0335,75.0743,0.00011366,0.00013489,0.0,0 STARLINK-5068,1 55423U 23014AJ  23099.47795964  .00013489  00000-0  11366-3 0  9998,2 55423  70.0010 259.1000 0001063 285.0335  75.0743 15.69952686 11782,6737.169,91.723,359.751,358.318,0.0
55423.0,STARLINK-5068,PAYLOAD,2023-04-09 13:00:00,15.69932986,0.0002529,70.0026,258.9229,262.6643,97.4265,4.3095e-05,4.974e-05,0.0,0 STARLINK-5068,1 55423U 23014AJ  23099.54167776  .00004974  00000-0  43095-4 0  9994,2 55423  70.0026 258.9229 0002529 262.6643  97.4265 15.69932986 10855,6737.226,91.724,360.795,357.387,0.0
55423.0,STARLINK-5068,PAYLOAD,2023-04-09 22:10:31,15.69943345,0.0003102,70.0012,257.8471,268.5801,91.5039,5.8424e-05,6.823e-05,0.0,0 STARLINK-5068,1 55423U 23014AJ  23099.92397154  .00006823  00000-0  58424-4 0  9998,2 55423  70.0012 257.8471 0003102 268.5801  91.5039 15.69943345 11852,6737.196,91.723,361.151,356.971,0.0
55423.0,STARLINK-5068,PAYLOAD,2023-04-10 16:31:32,15.69936356,0.0002756,69.9997,255.6973,275.0135,85.0746,-5.7844e-06,-9.08e-06,0.0,0 STARLINK-5068,1 55423U 23014AJ  23100.68856794 -.00000908  00000-0 -57844-5 0  9990,2 55423  69.9997 255.6973 0002756 275.0135  85.0746 15.69936356 11971,6737.216,91.723,360.938,357.224,0.0
55423.0,STARLINK-5068,PAYLOAD,2023-04-11 03:13:48,15.69921764,0.0004175,70.0032,254.4422,263.5988,96.4732,-2.7495e-05,-3.518e-05,0.0,0 STARLINK-5068,1 55423U 23014AJ  23101.13458758 -.00003518  00000-0 -27495-4 0  9997,2 55423  70.0032 254.4422 0004175 263.5988  96.4732 15.69921764 11108,6737.258,91.724,361.936,356.31,0.0
55423.0,STARLINK-5068,PAYLOAD,2023-04-11 12:24:19,15.69920373,0.0003573,70.001,253.3672,268.5007,91.5779,2.4236e-06,7.9e-07,0.0,0 STARLINK-5068,1 55423U 23014AJ  23101.51689200  .00000079  00000-0  24236-5 0  9995,2 55423  70.0010 253.3672 0003573 268.5007  91.5779 15.69920373 12100,6737.262,91.724,361.534,356.72,0.0
55423.0,STARLINK-5068,PAYLOAD,2023-04-11 16:59:34,15.69935086,0.0003251,69.9998,252.8321,261.0722,99.0106,3.6203e-05,4.144e-05,0.0,0 STARLINK-5068,1 55423U 23014AJ  23101.70803512  .00004144  00000-0  36203-4 0  9993,2 55423  69.9998 252.8321 0003251 261.0722  99.0106 15.69935086 11194,6737.22,91.724,361.275,356.894,0.0
55423.0,STARLINK-5068,PAYLOAD,2023-04-12 09:48:51,15.6992316,0.000374,70.0003,250.8588,270.8273,89.2494,1.3901e-05,1.459e-05,0.0,0 STARLINK-5068,1 55423U 23014AJ  23102.40892387  .00001459  00000-0  13901-4 0  9995,2 55423  70.0003 250.8588 0003740 270.8273  89.2494 15.69923160 11303,6737.254,91.724,361.639,356.599,0.0
55423.0,STARLINK-5068,PAYLOAD,2023-04-12 11:20:36,15.69927458,0.0003687,69.9999,250.6795,271.5029,88.5745,1.5856e-05,1.694e-05,0.0,0 STARLINK-5068,1 55423U 23014AJ  23102.47263891  .00001694  00000-0  15856-4 0  9996,2 55423  69.9999 250.6795 0003687 271.5029  88.5745 15.69927458 12259,6737.242,91.724,361.591,356.623,0.0
55423.0,STARLINK-5068,PAYLOAD,2023-04-13 10:16:53,15.69918299,0.0003481,69.9999,247.9929,269.9893,90.0904,1.1158e-05,1.129e-05,0.0,0 STARLINK-5068,1 55423U 23014AJ  23103.42839418  .00001129  00000-0  11158-4 0  9990,2 55423  69.9999 247.9929 0003481 269.9893  90.0904 15.69918299 12404,6737.268,91.725,361.478,356.788,0.0
55423.0,STARLINK-5068,PAYLOAD,2023-04-14 12:16:39,15.69930431,0.0004101,69.9975,244.9473,271.1002,88.9724,2.81e-05,3.168e-05,0.0,0 STARLINK-5068,1 55423U 23014AJ  23104.51157201  .00003168  00000-0  28100-4 0  9994,2 55423  69.9975 244.9473 0004101 271.1002  88.9724 15.69930431 11638,6737.233,91.724,361.861,356.335,0.0
55423.0,STARLINK-5068,PAYLOAD,2023-04-15 11:12:57,15.69913051,0.0003528,69.9992,242.261,274.3966,85.6827,-1.3269e-06,-3.72e-06,0.0,0 STARLINK-5068,1 55423U 23014AJ  23105.46733363 -.00000372  00000-0 -13269-5 0  9995,2 55423  69.9992 242.2610 0003528 274.3966  85.6827 15.69913051 12725,6737.283,91.725,361.525,356.771,0.0
55423.0,STARLINK-5068,PAYLOAD,2023-04-15 18:51:43,15.69918897,0.0002633,70.0017,241.3667,266.5144,93.5751,1.2092e-05,1.241e-05,0.0,0 STARLINK-5068,1 55423U 23014AJ  23105.78591693  .00001241  00000-0  12092-4 0  9994,2 55423  70.0017 241.3667 0002633 266.5144  93.5751 15.69918897 12777,6737.266,91.724,360.905,357.357,0.0
55423.0,STARLINK-5068,PAYLOAD,2023-04-16 11:40:58,15.69932985,0.0003233,69.9985,239.3953,266.2595,93.8231,7.4879e-06,6.88e-06,0.0,0 STARLINK-5068,1 55423U 23014AJ  23106.48679101  .00000688  00000-0  74879-5 0  9999,2 55423  69.9985 239.3953 0003233 266.2595  93.8231 15.69932985 12889,6737.226,91.724,361.269,356.913,0.0
55423.0,STARLINK-5068,PAYLOAD,2023-04-16 17:47:58,15.6993417,0.0003256,69.9989,238.6791,270.1518,89.9305,2.1515e-05,2.376e-05,0.0,0 STARLINK-5068,1 55423U 23014AJ  23106.74165369  .00002376  00000-0  21515-4 0  9998,2 55423  69.9989 238.6791 0003256 270.1518  89.9305 15.69934170 12920,6737.222,91.724,361.281,356.894,0.0
55423.0,STARLINK-5068,PAYLOAD,2023-04-17 12:09:01,15.69913487,0.0002749,69.9999,236.529,258.6315,101.4572,1.9324e-05,2.111e-05,0.0,0 STARLINK-5068,1 55423U 23014AJ  23107.50626943  .00002111  00000-0  19324-4 0  9995,2 55423  69.9999 236.5290 0002749 258.6315 101.4572 15.69913487 12108,6737.282,91.725,360.999,357.294,0.0
55423.0,STARLINK-5068,PAYLOAD,2023-04-17 18:16:01,15.69935468,0.0002237,69.999,235.8123,272.0367,88.0572,-1.567e-05,-2.096e-05,0.0,0 STARLINK-5068,1 55423U 23014AJ  23107.76112993 -.00002096  00000-0 -15670-4 0  9992,2 55423  69.9990 235.8123 0002237 272.0367  88.0572 15.69935468 12142,6737.219,91.724,360.591,357.577,0.0
55423.0,STARLINK-5068,PAYLOAD,2023-04-18 09:33:33,15.69915143,0.0003518,69.999,234.0203,263.8716,96.2079,1.2684e-05,1.312e-05,0.0,0 STARLINK-5068,1 55423U 23014AJ  23108.39830377  .00001312  00000-0  12684-4 0  9995,2 55423  69.9990 234.0203 0003518 263.8716  96.2079 15.69915143 12243,6737.277,91.725,361.512,356.772,0.0
55423.0,STARLINK-5068,PAYLOAD,2023-04-18 18:44:03,15.69928568,0.0002928,69.9999,232.945,250.6634,109.4245,5.0099e-06,3.9e-06,0.0,0 STARLINK-5068,1 55423U 23014AJ  23108.78059777  .00000390  00000-0  50099-5 0  9993,2 55423  69.9999 232.9450 0002928 250.6634 109.4245 15.69928568 13248,6737.238,91.724,361.076,357.131,0.0
55423.0,STARLINK-5068,PAYLOAD,2023-04-19 08:29:45,15.69968539,0.0005018,69.9998,231.3331,246.1408,113.9262,5.1134e-05,5.953e-05,0.0,0 STARLINK-5068,1 55423U 23014AJ  23109.35399867  .00005953  00000-0  51134-4 0  9994,2 55423  69.9998 231.3331 0005018 246.1408 113.9262 15.69968539 13331,6737.124,91.722,362.37,355.608,0.0
55423.0,STARLINK-5068,PAYLOAD,2023-04-19 10:02:10,15.69386858,0.0005309,69.9995,231.1561,287.0867,72.9747,-0.00061194,-0.00071607,0.0,0 STARLINK-5068,1 55423U 23014AJ  23109.41817914 -.00071607  00000-0 -61194-3 0  9996,2 55423  69.9995 231.1561 0005309 287.0867  72.9747 15.69386858 12404,6738.789,91.756,364.231,357.076,0.0
55423.0,STARLINK-5068,PAYLOAD,2023-04-19 17:41:55,15.68893273,0.0003345,70.0011,230.2635,241.7392,118.3466,-0.0012444,-0.00141226,0.0,0 STARLINK-5068,1 55423U 23014AJ  23109.73744319 -.00141226  00000-0 -12444-2 0  9997,2 55423  70.0011 230.2635 0003345 241.7392 118.3466 15.68893273 13391,6740.202,91.784,364.322,359.812,0.0
55423.0,STARLINK-5068,PAYLOAD,2023-04-20 01:21:22,15.68432197,0.0003295,69.9984,229.3672,254.3355,105.7476,-0.0015367,-0.00170495,0.0,0 STARLINK-5068,1 55423U 23014AJ  23110.05651113 -.00170495  00000-0 -15367-2 0  9990,2 55423  69.9984 229.3672 0003295 254.3355 105.7476 15.68432197 12507,6741.523,91.811,365.609,361.166,0.0
55423.0,STARLINK-5068,PAYLOAD,2023-04-20 14:00:01,15.66436116,0.0003362,70.001,227.8885,273.744,180.8463,-0.0091796,-0.00863596,0.0,0 STARLINK-5068,1 55423U 23014AJ  23110.58334491 -.00863596  00000-0 -91796-2 0  9996,2 55423  70.0010 227.8885 0003362 273.7440 180.8463 15.66436116  1303,6747.249,91.928,371.382,366.845,0.0
